STARLINK-30981          
1 58494U 23186X   26068.06319376  .00000481  00000+0  27010-4 0  9993
2 58494  43.0033  66.9033 0001484 266.4652  93.6030 15.27574809125793
FLOCK 4G-11             
1 62629U 25009W   26068.45629261  .00012672  00000+0  47740-3 0  9990
2 62629  97.3964 150.6183 0001611 333.5407  26.5750 15.27220677 63680
